<?xml version="1.0" encoding="UTF-8"?>
<kml xmlns="http://www.opengis.net/kml/2.2" xmlns:gx="http://www.google.com/kml/ext/2.2" xmlns:kml="http://www.opengis.net/kml/2.2" xmlns:atom="http://www.w3.org/2005/Atom">
<Document>
	<name>Hydrophytes.kml</name>
	<Style id="sn_ylw-pushpin">
		<IconStyle>
			<scale>1.1</scale>
			<Icon>
				<href>http://maps.google.com/mapfiles/kml/pushpin/ylw-pushpin.png</href>
			</Icon>
			<hotSpot x="20" y="2" xunits="pixels" yunits="pixels"/>
		</IconStyle>
		<LineStyle>
			<color>66ffffff</color>
		</LineStyle>
		<PolyStyle>
			<color>7fffff55</color>
			<outline>0</outline>
		</PolyStyle>
	</Style>
	<StyleMap id="msn_ylw-pushpin">
		<Pair>
			<key>normal</key>
			<styleUrl>#sn_ylw-pushpin</styleUrl>
		</Pair>
		<Pair>
			<key>highlight</key>
			<styleUrl>#sh_ylw-pushpin</styleUrl>
		</Pair>
	</StyleMap>
	<Style id="sh_ylw-pushpin">
		<IconStyle>
			<scale>1.3</scale>
			<Icon>
				<href>http://maps.google.com/mapfiles/kml/pushpin/ylw-pushpin.png</href>
			</Icon>
			<hotSpot x="20" y="2" xunits="pixels" yunits="pixels"/>
		</IconStyle>
		<LineStyle>
			<color>66ffffff</color>
		</LineStyle>
		<PolyStyle>
			<color>7fffff55</color>
			<outline>0</outline>
		</PolyStyle>
	</Style>
	<Placemark>
		<name>Hydrophytes</name>
		<styleUrl>#msn_ylw-pushpin</styleUrl>
		<Polygon>
			<tessellate>1</tessellate>
			<outerBoundaryIs>
				<LinearRing>
					<coordinates>
						-7.770174826785771,33.54204894418278,0 -7.770149950091508,33.54200688497873,0 -7.770087296794786,33.54195623298273,0 -7.770023798866471,33.54193977906011,0 -7.769958409603957,33.5419687915354,0 -7.769906732673891,33.54196194248269,0 -7.769837962220439,33.54197725452592,0 -7.769776603271498,33.54200847431304,0 -7.769691322190201,33.5420022405521,0 -7.769664438405193,33.54204305088113,0 -7.769661729273664,33.54210027733777,0 -7.769731482204395,33.54216535115812,0 -7.76969854462638,33.54221893499189,0 -7.769611961137851,33.54225288520255,0 -7.769514670637405,33.54227002973211,0 -7.769401436837438,33.54228323832827,0 -7.769305555818464,33.54229829302888,0 -7.769176902279132,33.54228796526323,0 -7.769084238629009,33.54228558059695,0 -7.769051811052955,33.54232109863921,0 -7.768976231981544,33.54235790651791,0 -7.768908362416026,33.54236183476921,0 -7.768820557298779,33.54237510450746,0 -7.76872772746303,33.54240410836594,0 -7.768647252960479,33.54246261331698,0 -7.768611972637046,33.54252766075621,0 -7.76853177424371,33.54252327568801,0 -7.768464609104919,33.5425115927706,0 -7.768399874623254,33.54251591526774,0 -7.768346520132909,33.54257550709593,0 -7.768303493186303,33.54261444186091,0 -7.768240936847434,33.54260232314578,0 -7.76815460759153,33.54261298232803,0 -7.768047987820857,33.5426254351545,0 -7.767952609113715,33.542657586818,0 -7.767807926323217,33.54258375683522,0 -7.767706075156847,33.54255018052506,0 -7.767660882679966,33.54262417111285,0 -7.767626740556617,33.54274186218824,0 -7.767586673207198,33.5427966226843,0 -7.76755480974521,33.54287816213677,0 -7.767454776112603,33.54294608811518,0 -7.767360907295044,33.54297062560067,0 -7.767218516154135,33.54290717161551,0 -7.767134273105588,33.54282860743558,0 -7.766997087633776,33.54281476163081,0 -7.766908545486722,33.54289130336289,0 -7.766841204727273,33.54294659025369,0 -7.766752263397052,33.54295093726274,0 -7.766665747664544,33.54295770392427,0 -7.76659170037994,33.54291505689079,0 -7.766503725567794,33.5428611243612,0 -7.766479849443597,33.54281136681615,0 -7.766405781162918,33.54275090842156,0 -7.766328699156601,33.54272400363529,0 -7.766262211069065,33.54271806167436,0 -7.766244232931347,33.54268126446786,0 -7.766203160675181,33.54266352105235,0 -7.766163955383927,33.54268485578773,0 -7.766166363392959,33.54274844111696,0 -7.766213444692508,33.54278822516674,0 -7.766173402703544,33.54283430360074,0 -7.766145773580684,33.5428829407069,0 -7.766134255821198,33.54294313365826,0 -7.766086785462774,33.54295512901739,0 -7.766084226222574,33.54295517080142,0 -7.766059438878497,33.54299170007207,0 -7.766009393979961,33.54300842311668,0 -7.765958027792608,33.54304360245853,0 -7.765903277093603,33.54307273439687,0 -7.765848467083992,33.54306723205252,0 -7.76578388768982,33.54307124508333,0 -7.765740188650852,33.54307934928674,0 -7.765669215374556,33.54305807951491,0 -7.765670058016683,33.54301448378513,0 -7.765645729180267,33.54298332934923,0 -7.765580505923872,33.54294421183524,0 -7.765511966221908,33.54296141856676,0 -7.765438085597749,33.54299016061344,0 -7.765381659294119,33.54302332980115,0 -7.765317036668209,33.54304771412149,0 -7.765228356522222,33.54308672937555,0 -7.765161036790484,33.54313801000089,0 -7.76510924420819,33.54316943112066,0 -7.765070681455089,33.54317633580319,0 -7.765014047245308,33.54314913284797,0 -7.764965536898818,33.54314207615319,0 -7.764919519836518,33.54313297732104,0 -7.764866443317137,33.54312806146479,0 -7.764827875145871,33.54310688321039,0 -7.764808703991827,33.54308346583035,0 -7.764782494307184,33.54306429180612,0 -7.764749035268665,33.54307088884505,0 -7.764765481274641,33.54310419773648,0 -7.764811048157059,33.54312520574607,0 -7.764840011429929,33.54314871786581,0 -7.764900698974849,33.54317174169027,0 -7.764941800704079,33.54316479821605,0 -7.764973843021048,33.54318854744879,0 -7.765013316125923,33.54320820615168,0 -7.765065250331818,33.54322772744765,0 -7.765066448232037,33.54326092937814,0 -7.765077533134484,33.543294249236,0 -7.765113173716199,33.54331888240068,0 -7.765130206513842,33.54336750715094,0 -7.765106487320223,33.54339814607651,0 -7.76509506185355,33.54342660284492,0 -7.765104805893984,33.54348128806821,0 -7.765050133759774,33.54351577082661,0 -7.765043903886997,33.54356077397869,0 -7.765003918017391,33.54360023763182,0 -7.76494755561013,33.54361749790636,0 -7.764913878635371,33.54360904357182,0 -7.764867494349659,33.5436123095968,0 -7.764821083765643,33.5436201626679,0 -7.764772025234396,33.54362349112853,0 -7.764736295388564,33.54358315319661,0 -7.764690330081393,33.54356826258123,0 -7.76462836993489,33.54358769518841,0 -7.764579176874444,33.54360014763184,0 -7.764522425846198,33.54360162196101,0 -7.764497841811,33.54363431779959,0 -7.764433247470983,33.54363140896762,0 -7.764392927050191,33.54361183628001,0 -7.76434391615437,33.54361082595769,0 -7.764292018378023,33.54365123006811,0 -7.764256459229367,33.54367533271964,0 -7.764205938066434,33.54368823733494,0 -7.764161977300966,33.54365649499608,0 -7.764130225805554,33.54363631623081,0 -7.764103288931782,33.54359554048909,0 -7.764062116198439,33.54359641072105,0 -7.764007815010134,33.54359984343386,0 -7.763946580946174,33.54359656953106,0 -7.763901379373469,33.54360895740867,0 -7.763843055508631,33.54362412157663,0 -7.763799265219716,33.54362055714895,0 -7.763759909592888,33.54361019163658,0 -7.763711090237671,33.54358005914469,0 -7.763679056253066,33.54356304887244,0 -7.763631834131743,33.54357280503227,0 -7.763609762035381,33.54361112072832,0 -7.763556481075378,33.5436142534078,0 -7.763520844039285,33.54361484560531,0 -7.763470833311907,33.54362917177731,0 -7.763484673918367,33.54368345738437,0 -7.763521338594822,33.54372880324694,0 -7.763512895202906,33.54379418931146,0 -7.763484353362205,33.54383734026271,0 -7.763438818290532,33.54386694959747,0 -7.763432423752113,33.54389353805414,0 -7.763465008138512,33.54390735276405,0 -7.763527731458341,33.54393276274973,0 -7.763560905869658,33.54398613068854,0 -7.763548810524283,33.54404328525723,0 -7.763533590505368,33.54409855225743,0 -7.763482031914032,33.54414516433596,0 -7.76344613311397,33.54413830257506,0 -7.763402507112528,33.54413922701487,0 -7.763340219004327,33.5441507141732,0 -7.763285430993099,33.54414678845212,0 -7.763230708083325,33.54414286736548,0 -7.763188900984952,33.54410618923044,0 -7.763150205401565,33.54407245023624,0 -7.763122348168285,33.5440148346696,0 -7.763111023883305,33.54396772225756,0 -7.763088557210293,33.54394883031079,0 -7.763025460275726,33.54394258173416,0 -7.762978683030948,33.5439001101396,0 -7.762936358761019,33.54384723705483,0 -7.762866412717272,33.54383061662212,0 -7.762833210178084,33.54375728460838,0 -7.76281914697668,33.54370529787413,0 -7.762805535050815,33.54364663726486,0 -7.762736659417247,33.54364743992628,0 -7.762631210482324,33.54369700884148,0 -7.762674925429796,33.54375230650112,0 -7.762707198316019,33.54381542386123,0 -7.7626779813788,33.54386555748481,0 -7.762643096456698,33.5439521676376,0 -7.762518394022379,33.54400489722188,0 -7.762428431130274,33.54405414934477,0 -7.762317544261826,33.54410784330548,0 -7.762209065268808,33.54416949163473,0 -7.762191705373926,33.54423419658492,0 -7.762100029602173,33.5442699793926,0 -7.761988974338568,33.54425249914565,0 -7.761929005997774,33.54421153020716,0 -7.7618241237471,33.54426633602702,0 -7.761704564676187,33.54432475801047,0 -7.761591967654669,33.544366147125,0 -7.761459534379323,33.54440803461022,0 -7.761334952408634,33.54447864066074,0 -7.761205841390797,33.54448705981341,0 -7.761059472684342,33.54454156729909,0 -7.760974032362304,33.54452048263995,0 -7.760831348214917,33.54452349479853,0 -7.760880625881445,33.5446201288524,0 -7.760966664426922,33.54464723370627,0 -7.761022982606653,33.54473316269735,0 -7.760942140381488,33.54484019902503,0 -7.760979007352354,33.54492808068126,0 -7.761068019778614,33.54498575629086,0 -7.761004515679614,33.54505303750879,0 -7.760933388858092,33.5451088263729,0 -7.760787273075059,33.54514221251874,0 -7.760701432117088,33.54518659545042,0 -7.760567431412316,33.54520163403346,0 -7.760466551494146,33.54519767531452,0 -7.760411583225849,33.54511384011997,0 -7.760330699038171,33.5450552849497,0 -7.760243587093195,33.54498529112721,0 -7.760110881216677,33.54492800919802,0 -7.759978959036786,33.5448885292919,0 -7.760157268057565,33.54501698621382,0 -7.760244345393577,33.54511134083886,0 -7.760372899722099,33.54523019958027,0 -7.760258819725269,33.54527553397062,0 -7.760171264432364,33.54532049442981,0 -7.760063004222947,33.54536608579183,0 -7.759961069613094,33.54540566828592,0 -7.759872757197473,33.54541382045532,0 -7.759763979162284,33.54542251781421,0 -7.759682424840849,33.54542443347946,0 -7.759570807505663,33.5454635868227,0 -7.759458396670564,33.54547597858844,0 -7.759356323895631,33.54549315729334,0 -7.759221438364636,33.54552109768709,0 -7.759143807517985,33.54557308824103,0 -7.759060637183726,33.54562024180168,0 -7.758992002149389,33.54560098618963,0 -7.758936617770656,33.54554632200176,0 -7.758914197728943,33.54548612787357,0 -7.758869540401607,33.54551668700626,0 -7.758875025844198,33.5455874987052,0 -7.758827674880328,33.54564917056317,0 -7.758754263974733,33.54562932347814,0 -7.758703342437057,33.5455991486921,0 -7.75866243042244,33.54564032593592,0 -7.758619453820353,33.54570235062823,0 -7.758577915466937,33.54568722531104,0 -7.758488279165196,33.54567253532693,0 -7.758405835108254,33.54569379246787,0 -7.758273158747496,33.54572673180061,0 -7.758164476191821,33.5457802222552,0 -7.758084322263037,33.54585989884047,0 -7.758045685424158,33.54595044049333,0 -7.758053380335247,33.54606301282912,0 -7.758020728810263,33.54610623365107,0 -7.757922607012566,33.54605408085428,0 -7.757854368084378,33.54607119165981,0 -7.757810053868441,33.54615749265329,0 -7.757723329713274,33.54618566034159,0 -7.757634799266731,33.54622478076065,0 -7.757612124529462,33.54634537055584,0 -7.757560135503269,33.54639580041307,0 -7.75748780940313,33.54643009112002,0 -7.757402149809511,33.54640346837824,0 -7.757360021655106,33.54635368518364,0 -7.757298027578105,33.5464265415816,0 -7.757251336454627,33.54650562689606,0 -7.757183149998665,33.54651160434437,0 -7.757107944863466,33.54655737290304,0 -7.757039010234741,33.54659762590966,0 -7.756975044021584,33.54663389683431,0 -7.756881712877782,33.54667137612079,0 -7.75678904793831,33.54667427488318,0 -7.756709940408922,33.54675220903604,0 -7.756716496673573,33.54683063677138,0 -7.756893451614024,33.54675402387704,0 -7.757051046883079,33.54673752532609,0 -7.757184017938846,33.54669885185787,0 -7.757303780299074,33.5467822324861,0 -7.757238069665899,33.54692799624423,0 -7.757208481140269,33.54709861224833,0 -7.757322872171217,33.54698741496586,0 -7.75738612433954,33.54686540874538,0 -7.757474948617843,33.54674350962152,0 -7.757552106357251,33.54662017001988,0 -7.757691645922304,33.54650876265104,0 -7.757858970810129,33.54637255184061,0 -7.758011363603413,33.54624934385331,0 -7.758229697584768,33.54608986964082,0 -7.758480980110734,33.54594627076045,0 -7.758662789840965,33.54585337160031,0 -7.758845151177237,33.54576923274858,0 -7.759076333618237,33.54569637272411,0 -7.759388184361876,33.54553916050877,0 -7.759514006242431,33.54553646102523,0 -7.759641002624481,33.54551066452421,0 -7.759817370217141,33.54550615923601,0 -7.759956564653169,33.54548028159218,0 -7.760196798934407,33.54542942418286,0 -7.760411055961907,33.54539062826931,0 -7.760550821150559,33.54530831721568,0 -7.760814564146083,33.54523520062744,0 -7.761002779439733,33.54515261112812,0 -7.7611776888725,33.54508190704212,0 -7.761376608803058,33.54502296783069,0 -7.76156261589076,33.54495326637736,0 -7.761772892943091,33.54488276306983,0 -7.761982494050541,33.54481240081326,0 -7.762192016838231,33.54477510177028,0 -7.762413265402111,33.54472667491355,0 -7.762683934653412,33.54469763863536,0 -7.762880219136,33.54466988298471,0 -7.763086246069904,33.54458781917133,0 -7.763327753375568,33.54449532200349,0 -7.763615523372179,33.54437095588362,0 -7.76382849222788,33.54424878706516,0 -7.764138613370796,33.5441459330741,0 -7.764339721717302,33.5440672697979,0 -7.76450293621346,33.54397914749621,0 -7.764780714141679,33.54397231923328,0 -7.765036906766004,33.54399742286807,0 -7.765262325415401,33.5439497937797,0 -7.765475423706453,33.54390298169243,0 -7.765652066861217,33.54385730816588,0 -7.765806537013437,33.54383312327988,0 -7.766055988158477,33.54379651801328,0 -7.766278610337069,33.5437398625036,0 -7.766540065857073,33.54370403562202,0 -7.766574361999688,33.54359917571593,0 -7.766671023400662,33.54351423548132,0 -7.766834128402657,33.54348889529176,0 -7.766956980411852,33.54351643305711,0 -7.766940557511532,33.54365197919072,0 -7.767123971635291,33.54366020692649,0 -7.767244025010083,33.54351054169844,0 -7.767391423510398,33.54339219706132,0 -7.767556996817643,33.54324389750989,0 -7.767763150752986,33.54311827002454,0 -7.767915594319216,33.5429551974124,0 -7.768135334132621,33.54286041461207,0 -7.768394247687577,33.54272580917124,0 -7.768736941664882,33.54261904206462,0 -7.769063070609622,33.54249398920067,0 -7.769232867912979,33.54241203359646,0 -7.769496758546895,33.54233820231065,0 -7.769811057837019,33.54223452357339,0 -7.77017233803027,33.54209189382581,0 -7.770174826785771,33.54204894418278,0 
					</coordinates>
				</LinearRing>
			</outerBoundaryIs>
		</Polygon>
	</Placemark>
</Document>
</kml>
