<?xml version="1.0" encoding="UTF-8"?>
<kml xmlns="http://www.opengis.net/kml/2.2" xmlns:gx="http://www.google.com/kml/ext/2.2" xmlns:kml="http://www.opengis.net/kml/2.2" xmlns:atom="http://www.w3.org/2005/Atom">
<Document>
	<name>Pelouse amphibie.kml</name>
	<Style id="sn_ylw-pushpin">
		<IconStyle>
			<scale>1.1</scale>
			<Icon>
				<href>http://maps.google.com/mapfiles/kml/pushpin/ylw-pushpin.png</href>
			</Icon>
			<hotSpot x="20" y="2" xunits="pixels" yunits="pixels"/>
		</IconStyle>
		<LineStyle>
			<color>66ffffff</color>
		</LineStyle>
		<PolyStyle>
			<color>66ff00ff</color>
			<outline>0</outline>
		</PolyStyle>
	</Style>
	<StyleMap id="msn_ylw-pushpin">
		<Pair>
			<key>normal</key>
			<styleUrl>#sn_ylw-pushpin</styleUrl>
		</Pair>
		<Pair>
			<key>highlight</key>
			<styleUrl>#sh_ylw-pushpin</styleUrl>
		</Pair>
	</StyleMap>
	<Style id="sh_ylw-pushpin">
		<IconStyle>
			<scale>1.3</scale>
			<Icon>
				<href>http://maps.google.com/mapfiles/kml/pushpin/ylw-pushpin.png</href>
			</Icon>
			<hotSpot x="20" y="2" xunits="pixels" yunits="pixels"/>
		</IconStyle>
		<LineStyle>
			<color>66ffffff</color>
		</LineStyle>
		<PolyStyle>
			<color>66ff00ff</color>
			<outline>0</outline>
		</PolyStyle>
	</Style>
	<Placemark>
		<name>Pelouse amphibie</name>
		<styleUrl>#msn_ylw-pushpin</styleUrl>
		<Polygon>
			<tessellate>1</tessellate>
			<outerBoundaryIs>
				<LinearRing>
					<coordinates>
						-7.760827654412833,33.5445203088177,0 -7.76080571927067,33.54450119982086,0 -7.760798316796217,33.54451961486512,0 -7.760809983079986,33.544552437227,0 -7.760805279327638,33.54458213730865,0 -7.7608361188927,33.54461018833408,0 -7.760860461608433,33.54463044810494,0 -7.760883793805707,33.54466367815878,0 -7.760876719105112,33.54469670257782,0 -7.760861868230442,33.54473907723437,0 -7.760855761351969,33.54475983721444,0 -7.760801947059007,33.54475358844327,0 -7.76076896477866,33.5447661322044,0 -7.760751939397366,33.54479943000344,0 -7.760729983028293,33.54482725416036,0 -7.760713741985792,33.54484450321153,0 -7.760678391358606,33.54485919399071,0 -7.760642649565811,33.54484756617221,0 -7.760610935403065,33.54482979560429,0 -7.760576203080447,33.54483974064456,0 -7.760563113593303,33.54486944391707,0 -7.760556337034989,33.5448883936819,0 -7.760528080393153,33.54489057393041,0 -7.760508954952531,33.54489729571749,0 -7.760469620786157,33.54484971997788,0 -7.760431298529858,33.54486137264736,0 -7.760410194802393,33.54484174933072,0 -7.760390113667688,33.54482839563924,0 -7.760363000548898,33.54481074207983,0 -7.760333870954451,33.5448021603727,0 -7.760304035808757,33.54477256538725,0 -7.760274014676208,33.54475227226911,0 -7.760248515181321,33.54471037501911,0 -7.76021684954376,33.54468219635943,0 -7.760178491495182,33.54466294032491,0 -7.760140298618561,33.54466074276156,0 -7.76011334172988,33.54468244850013,0 -7.760075890141379,33.54469448786703,0 -7.760039249527297,33.5446950766949,0 -7.76002367608559,33.5446682939154,0 -7.760037867277932,33.54463584447397,0 -7.760022296789533,33.54460444692187,0 -7.760044097957004,33.54457565296332,0 -7.760026372545536,33.54455990883426,0 -7.759986003939617,33.54454733796398,0 -7.759930967489071,33.54454563918121,0 -7.759910939082367,33.54453272944849,0 -7.75987602517747,33.54453319347357,0 -7.759850252478965,33.54452829519813,0 -7.75981532201984,33.54453925443357,0 -7.759788185444113,33.54453174075285,0 -7.759788914109222,33.54457145648735,0 -7.759789791736012,33.54460525714887,0 -7.759778399136199,33.54463152062727,0 -7.759759032016201,33.54465817491349,0 -7.759708396458764,33.54467402626246,0 -7.759625267706713,33.54474994755466,0 -7.759607440870395,33.54477691862257,0 -7.75957469102445,33.54480585649604,0 -7.759536441845675,33.54483678635452,0 -7.759515023665946,33.54485713790208,0 -7.759499649273277,33.54488086232254,0 -7.759492515245419,33.54490325923437,0 -7.759466195276574,33.54491781911281,0 -7.759474483003659,33.54493408734155,0 -7.759495768443609,33.54495545728265,0 -7.759509278423534,33.54497354583934,0 -7.759526057133196,33.54495528851355,0 -7.759542613444777,33.54491774346521,0 -7.759552664212146,33.54489674885665,0 -7.759567297331752,33.54487914933102,0 -7.759601706941083,33.54488363522801,0 -7.759629856203645,33.54488615883084,0 -7.759666096256153,33.54489479671226,0 -7.759685556160622,33.54490858852568,0 -7.759715306632938,33.54492066387755,0 -7.759736945447877,33.5449281858637,0 -7.759770718926021,33.54492425694632,0 -7.759794553990174,33.5449047465316,0 -7.759828156595682,33.54488533657501,0 -7.759874787794744,33.54487524990736,0 -7.759909963400842,33.54489040716054,0 -7.759935561745076,33.5449153834006,0 -7.760004398817628,33.54495466213633,0 -7.760049982535978,33.54498187494184,0 -7.760100183001083,33.5450178130461,0 -7.760134313103887,33.54503583762341,0 -7.760171718996021,33.54507067279004,0 -7.760218878741629,33.54510938119002,0 -7.76026411927263,33.54513824079155,0 -7.760197972870515,33.5450701045561,0 -7.76015973404304,33.5450268894349,0 -7.760106649339687,33.5449827194926,0 -7.760061908201394,33.54494732960017,0 -7.759994071337218,33.54490338737832,0 -7.759980285366143,33.54489251632146,0 -7.760029407219068,33.54490445370579,0 -7.760082521900252,33.54492122350244,0 -7.760150319256221,33.54494605060619,0 -7.760229843693526,33.5449773139713,0 -7.760272208323979,33.54500610256311,0 -7.760308228211042,33.54503544974331,0 -7.760340676001297,33.54506018211018,0 -7.760371335473518,33.54508180804184,0 -7.760408512132729,33.54511050241765,0 -7.760430892762638,33.54514524496386,0 -7.760466703265942,33.54519657761696,0 -7.76052343058891,33.54520080193578,0 -7.760584495594093,33.54519764754018,0 -7.760642715486879,33.54518910512489,0 -7.76069818745391,33.54518608120156,0 -7.760741306430418,33.54516708215553,0 -7.760783686621156,33.54514646584275,0 -7.760822332879559,33.54513495825775,0 -7.760863512580299,33.54511992216361,0 -7.760913213077356,33.5451118068763,0 -7.760956499837192,33.54508642275592,0 -7.760983156946992,33.5450668321528,0 -7.761015505720162,33.54503707766233,0 -7.761043337349643,33.54501788607584,0 -7.761058956605322,33.54498747750526,0 -7.76103086880117,33.54496170833836,0 -7.760994633785332,33.54493644104484,0 -7.76097278763848,33.54491278357889,0 -7.760954049635352,33.54486263849542,0 -7.760945258681447,33.54483032151282,0 -7.760975174879325,33.54479467212821,0 -7.76099609621356,33.544764271711,0 -7.761019506265078,33.54473279994872,0 -7.760996616926134,33.54468840794823,0 -7.760966036809135,33.54464499457193,0 -7.76092217675002,33.54463053271634,0 -7.760880994901049,33.54461890426679,0 -7.760859745924651,33.54457016820243,0 -7.760847384286058,33.54454764880774,0 -7.760827654412833,33.5445203088177,0 
					</coordinates>
				</LinearRing>
			</outerBoundaryIs>
		</Polygon>
	</Placemark>
</Document>
</kml>
