<?xml version="1.0" encoding="UTF-8"?>
<kml xmlns="http://www.opengis.net/kml/2.2" xmlns:gx="http://www.google.com/kml/ext/2.2" xmlns:kml="http://www.opengis.net/kml/2.2" xmlns:atom="http://www.w3.org/2005/Atom">
<Document>
	<name>Phragmitaie ouest.kml</name>
	<Style id="sn_ylw-pushpin">
		<IconStyle>
			<scale>1.1</scale>
			<Icon>
				<href>http://maps.google.com/mapfiles/kml/pushpin/ylw-pushpin.png</href>
			</Icon>
			<hotSpot x="20" y="2" xunits="pixels" yunits="pixels"/>
		</IconStyle>
		<LineStyle>
			<color>66ffffff</color>
		</LineStyle>
		<PolyStyle>
			<color>6600ffff</color>
			<outline>0</outline>
		</PolyStyle>
	</Style>
	<StyleMap id="msn_ylw-pushpin">
		<Pair>
			<key>normal</key>
			<styleUrl>#sn_ylw-pushpin</styleUrl>
		</Pair>
		<Pair>
			<key>highlight</key>
			<styleUrl>#sh_ylw-pushpin</styleUrl>
		</Pair>
	</StyleMap>
	<Style id="sh_ylw-pushpin">
		<IconStyle>
			<scale>1.3</scale>
			<Icon>
				<href>http://maps.google.com/mapfiles/kml/pushpin/ylw-pushpin.png</href>
			</Icon>
			<hotSpot x="20" y="2" xunits="pixels" yunits="pixels"/>
		</IconStyle>
		<LineStyle>
			<color>66ffffff</color>
		</LineStyle>
		<PolyStyle>
			<color>6600ffff</color>
			<outline>0</outline>
		</PolyStyle>
	</Style>
	<Placemark>
		<name>Phragmitaie ouest</name>
		<styleUrl>#msn_ylw-pushpin</styleUrl>
		<Polygon>
			<tessellate>1</tessellate>
			<outerBoundaryIs>
				<LinearRing>
					<coordinates>
						-7.759281821938298,33.54541712402413,0 -7.759346230656346,33.54540129571755,0 -7.759383613295791,33.54542910213975,0 -7.759406049227583,33.54546183987245,0 -7.759452335743154,33.54546682978565,0 -7.759484733141777,33.54546681139824,0 -7.759531069083411,33.54545580436691,0 -7.759572331795008,33.54545170293489,0 -7.75961993900734,33.54544697080726,0 -7.759675629380974,33.54543504539246,0 -7.759731223984034,33.54542314047023,0 -7.759773745362613,33.54542497534225,0 -7.759816454178487,33.54542704153393,0 -7.759857708252174,33.54542297490929,0 -7.759898960932945,33.54541890838697,0 -7.759926717036681,33.54541300368825,0 -7.759967951115652,33.54540893904617,0 -7.76000034695929,33.5453962549723,0 -7.760042158154236,33.54538266538309,0 -7.760081610242412,33.54537253499909,0 -7.760108127348473,33.54535125303268,0 -7.760139689963364,33.54534816726124,0 -7.760154835316157,33.5453218986621,0 -7.760175293424584,33.545292189998,0 -7.760223693764329,33.54528132600595,0 -7.760264489828996,33.54529884007165,0 -7.76029002175455,33.54528711469236,0 -7.760302419153177,33.54526444839927,0 -7.760335922837744,33.54525811712366,0 -7.760367827087626,33.5452367115555,0 -7.760362829216899,33.54520087226192,0 -7.760371817915274,33.54517895148846,0 -7.76032876402759,33.54517417612146,0 -7.760283505977712,33.5451517664989,0 -7.760243382076211,33.54513494109964,0 -7.760208352875621,33.5451030451618,0 -7.760177021750597,33.54508273344306,0 -7.760159428039049,33.54505542636848,0 -7.760128126502276,33.54502387546533,0 -7.7600835372319,33.54501069169362,0 -7.760054912553472,33.54498755564963,0 -7.760026485520295,33.5449645793765,0 -7.759990800154572,33.54494808084054,0 -7.759951540428203,33.54492921690468,0 -7.759917730741533,33.54489609140059,0 -7.759884222767736,33.54487429947526,0 -7.75983664733877,33.54487869566462,0 -7.759786300938801,33.54491933210328,0 -7.759740081584837,33.54492941191879,0 -7.75969013673773,33.54491210683116,0 -7.759641509613432,33.54488655171365,0 -7.759595940755855,33.54488554325651,0 -7.759570865157697,33.54488216140378,0 -7.759553492027762,33.54491156796096,0 -7.7595377767905,33.5449493114936,0 -7.759514630227464,33.54498235484532,0 -7.759517718594326,33.54502441132424,0 -7.759503927115707,33.54507435205212,0 -7.759469910136824,33.54511817753338,0 -7.759429420707765,33.54516307028246,0 -7.759396759233908,33.54518690265141,0 -7.75936366443136,33.54522576072267,0 -7.759341516977109,33.54525785800865,0 -7.759318097741199,33.54528426314605,0 -7.759297098764901,33.54530753962808,0 -7.759273942215843,33.54533725711207,0 -7.759271550153414,33.54537746162499,0 -7.759281821938298,33.54541712402413,0 
					</coordinates>
				</LinearRing>
			</outerBoundaryIs>
		</Polygon>
	</Placemark>
</Document>
</kml>
