<?xml version="1.0" encoding="UTF-8"?>
<kml xmlns="http://www.opengis.net/kml/2.2" xmlns:gx="http://www.google.com/kml/ext/2.2" xmlns:kml="http://www.opengis.net/kml/2.2" xmlns:atom="http://www.w3.org/2005/Atom">
<Document>
	<name>Phragmitaie Est.kml</name>
	<Style id="sn_ylw-pushpin">
		<IconStyle>
			<scale>1.1</scale>
			<Icon>
				<href>http://maps.google.com/mapfiles/kml/pushpin/ylw-pushpin.png</href>
			</Icon>
			<hotSpot x="20" y="2" xunits="pixels" yunits="pixels"/>
		</IconStyle>
		<LineStyle>
			<color>66ffffff</color>
		</LineStyle>
		<PolyStyle>
			<color>6600ffff</color>
			<outline>0</outline>
		</PolyStyle>
	</Style>
	<StyleMap id="msn_ylw-pushpin">
		<Pair>
			<key>normal</key>
			<styleUrl>#sn_ylw-pushpin</styleUrl>
		</Pair>
		<Pair>
			<key>highlight</key>
			<styleUrl>#sh_ylw-pushpin</styleUrl>
		</Pair>
	</StyleMap>
	<Style id="sh_ylw-pushpin">
		<IconStyle>
			<scale>1.3</scale>
			<Icon>
				<href>http://maps.google.com/mapfiles/kml/pushpin/ylw-pushpin.png</href>
			</Icon>
			<hotSpot x="20" y="2" xunits="pixels" yunits="pixels"/>
		</IconStyle>
		<LineStyle>
			<color>66ffffff</color>
		</LineStyle>
		<PolyStyle>
			<color>6600ffff</color>
			<outline>0</outline>
		</PolyStyle>
	</Style>
	<Placemark>
		<name>Phragmitaie Est</name>
		<styleUrl>#msn_ylw-pushpin</styleUrl>
		<Polygon>
			<tessellate>1</tessellate>
			<outerBoundaryIs>
				<LinearRing>
					<coordinates>
						-7.759048007026056,33.54539279531253,0 -7.759000494658346,33.54539366573603,0 -7.758957630394238,33.54538166451662,0 -7.758905206380588,33.54536734896703,0 -7.758852999112419,33.54537804506484,0 -7.758813570144968,33.54539070621541,0 -7.758756353030112,33.54541423351309,0 -7.75869921429199,33.54544097145113,0 -7.758648552782414,33.54543895653293,0 -7.758585797794877,33.5454411041088,0 -7.758550459872089,33.5454315791343,0 -7.758491304132402,33.54543656267298,0 -7.758421545056806,33.54547059314679,0 -7.758348274650314,33.54550874872979,0 -7.758265229990336,33.54555455227893,0 -7.758197746970933,33.54561546999847,0 -7.758126044650592,33.54567425649668,0 -7.75809162791533,33.54571371292826,0 -7.758037811435028,33.54577541022096,0 -7.757976561690302,33.54580123360235,0 -7.757921512684978,33.54582319272714,0 -7.757856424920179,33.54585295833705,0 -7.757807261660917,33.54588141079983,0 -7.757751192271435,33.54591408790946,0 -7.757691160897743,33.54596096924639,0 -7.757608132525226,33.54599923989421,0 -7.75753057602911,33.54604793550031,0 -7.757465477069957,33.54609928877247,0 -7.757430131217912,33.54614139546924,0 -7.75742820837055,33.54623229030325,0 -7.757388542791139,33.54627964112694,0 -7.757371964781694,33.54632939312278,0 -7.757380255186737,33.54635885424687,0 -7.757419659301358,33.54638216868833,0 -7.757452144545383,33.54641706692022,0 -7.757495651009634,33.5464436991698,0 -7.757534499943114,33.54642126270682,0 -7.757562983716584,33.54639602444431,0 -7.757605206399064,33.5463659348955,0 -7.757596623970827,33.54631436052704,0 -7.757618835846415,33.54625703353962,0 -7.757647322433154,33.5462070949302,0 -7.757722021419161,33.5461824035031,0 -7.757796337365498,33.54616862660035,0 -7.757813685077744,33.54610972468418,0 -7.757850823792857,33.54605666256754,0 -7.75791089423273,33.54604046090173,0 -7.757950888316815,33.54605841233762,0 -7.75800481317957,33.54609282751424,0 -7.75805529846726,33.54609550045392,0 -7.758057673221374,33.5460379556889,0 -7.75806381704969,33.54600159743837,0 -7.758036818535615,33.5459685585416,0 -7.758052833945223,33.54592843287539,0 -7.758068806001301,33.54589561628741,0 -7.758081147747646,33.54584961933783,0 -7.75811281530819,33.54580236239032,0 -7.758154266970933,33.54577152043009,0 -7.758195660363127,33.54574756588281,0 -7.758240324446768,33.54573009217833,0 -7.75830461433673,33.54572087789553,0 -7.758355283061925,33.54569957745552,0 -7.758393296925422,33.545686132882,0 -7.758424986939815,33.54567675794399,0 -7.75846623142759,33.54566673078536,0 -7.758497818228435,33.54565750853543,0 -7.758533827528896,33.54566446324633,0 -7.758553611032632,33.54566946507089,0 -7.758571292686312,33.54568798104622,0 -7.758605516107179,33.54570860305208,0 -7.75863696754938,33.54569595407403,0 -7.758643950019472,33.54566533797965,0 -7.758654390458566,33.54563796463897,0 -7.758671158492637,33.54561024319524,0 -7.758705378987525,33.54559757597419,0 -7.758740060335988,33.54562098225919,0 -7.758771775511494,33.54564482652065,0 -7.758803257857144,33.5456355930031,0 -7.758833767042602,33.54564630351587,0 -7.758853625758654,33.54562148736718,0 -7.758877397963069,33.5455767635578,0 -7.758873438023793,33.54554451245101,0 -7.758854410838025,33.54552023286171,0 -7.758882609174331,33.54548898687864,0 -7.758909072663192,33.54547081263717,0 -7.758938962625017,33.54550352164342,0 -7.758930152911528,33.54555918308527,0 -7.758965565898532,33.54558192437115,0 -7.75898367634878,33.54561954367969,0 -7.759050983715371,33.54563322369221,0 -7.759086867909836,33.54561018740246,0 -7.759070018389727,33.54556268096549,0 -7.75906753400468,33.54552411168832,0 -7.75905648121102,33.54549307830953,0 -7.759038279366698,33.54545663395992,0 -7.759077961339686,33.54544354512423,0 -7.759048007026056,33.54539279531253,0 
					</coordinates>
				</LinearRing>
			</outerBoundaryIs>
		</Polygon>
	</Placemark>
</Document>
</kml>
