<?xml version="1.0" encoding="UTF-8"?>
<kml xmlns="http://www.opengis.net/kml/2.2" xmlns:gx="http://www.google.com/kml/ext/2.2" xmlns:kml="http://www.opengis.net/kml/2.2" xmlns:atom="http://www.w3.org/2005/Atom">
<Document>
	<name>Typhaie 3.kml</name>
	<Style id="sh_ylw-pushpin">
		<IconStyle>
			<scale>1.3</scale>
			<Icon>
				<href>http://maps.google.com/mapfiles/kml/pushpin/ylw-pushpin.png</href>
			</Icon>
			<hotSpot x="20" y="2" xunits="pixels" yunits="pixels"/>
		</IconStyle>
		<LineStyle>
			<color>66ffffff</color>
		</LineStyle>
		<PolyStyle>
			<color>7f0055aa</color>
			<outline>0</outline>
		</PolyStyle>
	</Style>
	<Style id="sn_ylw-pushpin">
		<IconStyle>
			<scale>1.1</scale>
			<Icon>
				<href>http://maps.google.com/mapfiles/kml/pushpin/ylw-pushpin.png</href>
			</Icon>
			<hotSpot x="20" y="2" xunits="pixels" yunits="pixels"/>
		</IconStyle>
		<LineStyle>
			<color>66ffffff</color>
		</LineStyle>
		<PolyStyle>
			<color>7f0055aa</color>
			<outline>0</outline>
		</PolyStyle>
	</Style>
	<StyleMap id="msn_ylw-pushpin">
		<Pair>
			<key>normal</key>
			<styleUrl>#sn_ylw-pushpin</styleUrl>
		</Pair>
		<Pair>
			<key>highlight</key>
			<styleUrl>#sh_ylw-pushpin</styleUrl>
		</Pair>
	</StyleMap>
	<Placemark>
		<name>Typhaie 3</name>
		<styleUrl>#msn_ylw-pushpin</styleUrl>
		<Polygon>
			<tessellate>1</tessellate>
			<outerBoundaryIs>
				<LinearRing>
					<coordinates>
						-7.760831466979456,33.54460507572829,0 -7.760808997517724,33.54458178187963,0 -7.760810529900884,33.54454805344917,0 -7.760797401118593,33.54451663962768,0 -7.76076677721473,33.54449859927772,0 -7.760742696301807,33.5444966391314,0 -7.760717758499943,33.54453347639934,0 -7.760701526372811,33.5445658541625,0 -7.760688787596537,33.54459093900552,0 -7.760640716575643,33.54458934323298,0 -7.760614518088134,33.54457551644564,0 -7.76057222997831,33.54457503010877,0 -7.760542117708772,33.54458466414975,0 -7.760514729406985,33.54458769700541,0 -7.760483154388745,33.5445921164923,0 -7.760447587018736,33.54459262757825,0 -7.760426434372231,33.54460488514638,0 -7.76037731737817,33.54460159252853,0 -7.760362417720522,33.54461784410349,0 -7.760346357307543,33.54459540467852,0 -7.760324309643908,33.54458255092938,0 -7.760290068069022,33.54458566998894,0 -7.760268112563848,33.54460050054799,0 -7.760235912589362,33.54460760485584,0 -7.760199490886838,33.54460413649586,0 -7.760160873084941,33.54460734579318,0 -7.760147418695499,33.54459694039849,0 -7.760118630618496,33.54459867427354,0 -7.760099632302016,33.54460689226642,0 -7.760096105131681,33.54458716019718,0 -7.760074890761811,33.54457702600938,0 -7.76004495831333,33.54457876170782,0 -7.760021455157259,33.5445961153198,0 -7.760026351655046,33.54461325753319,0 -7.760043424495358,33.54463178079217,0 -7.760024564632307,33.54467445694353,0 -7.760036876297374,33.54469103287296,0 -7.760053664558305,33.54469919613657,0 -7.760082236365665,33.54469601417808,0 -7.760115534148227,33.54468016273655,0 -7.760137228816598,33.54465633051282,0 -7.760170180808464,33.54465862273423,0 -7.760203027259273,33.54467338860382,0 -7.760218965483992,33.54468014027451,0 -7.760235898649842,33.54470376545736,0 -7.760248163868463,33.5447078307885,0 -7.76026283365359,33.54473039151988,0 -7.760276285725816,33.5447533079748,0 -7.760308888285268,33.54477485025134,0 -7.760334093506907,33.54480429984687,0 -7.760370296835333,33.54480968455557,0 -7.760389729240957,33.54482880358908,0 -7.760414233177927,33.54484041109115,0 -7.760423746263037,33.54485858172903,0 -7.760455166321711,33.54485482012364,0 -7.760470414899732,33.54484376345518,0 -7.760486132407017,33.5448649388177,0 -7.76050333987352,33.54489578855389,0 -7.760529018587794,33.54489207888419,0 -7.760557678718763,33.54488517352067,0 -7.760568315544313,33.54485543117499,0 -7.760584679164872,33.54482910542686,0 -7.760615724689433,33.54482843012584,0 -7.760639589374651,33.54484008033816,0 -7.76066523256728,33.54485640066238,0 -7.760699469082763,33.54485411301838,0 -7.760728525224565,33.54483661832089,0 -7.760746361108045,33.54480750324953,0 -7.760769464867101,33.5447743528642,0 -7.760777226089056,33.54475810156051,0 -7.760797012376814,33.54475041513852,0 -7.760825000070307,33.54475706735992,0 -7.760859740292756,33.54475631533191,0 -7.760870568144122,33.54473153773211,0 -7.760877859655176,33.54470156905078,0 -7.760884026147813,33.54466228993891,0 -7.760867052953473,33.54463117088167,0 -7.760831466979456,33.54460507572829,0 
					</coordinates>
				</LinearRing>
			</outerBoundaryIs>
		</Polygon>
	</Placemark>
</Document>
</kml>
